CCSDS_OMM_VERS = 2.0
CREATION_DATE  = 
ORIGINATOR     = 

OBJECT_NAME    = UNKNOWN
OBJECT_ID      = 
CENTER_NAME    = EARTH
REF_FRAME      = TEME
TIME_SYSTEM    = UTC
MEAN_ELEMENT_THEORY = SGP/SGP4

EPOCH          = 2025-11-09T04:33:19.380960
MEAN_MOTION    = 11.27760531
ECCENTRICITY   = .01489688
INCLINATION    = 64.8112
RA_OF_ASC_NODE = 290.8112
ARG_OF_PERICENTER = 52.2949
MEAN_ANOMALY   = 309.1375

EPHEMERIS_TYPE = 0
CLASSIFICATION_TYPE = U
NORAD_CAT_ID   = 270072
ELEMENT_SET_NO = 999
REV_AT_EPOCH   = 24519
BSTAR          = .78907508E-3
MEAN_MOTION_DOT = -.15E-6
MEAN_MOTION_DDOT = 0

CCSDS_OMM_VERS = 2.0
CREATION_DATE  = 
ORIGINATOR     = 

OBJECT_NAME    = UNKNOWN
OBJECT_ID      = 
CENTER_NAME    = EARTH
REF_FRAME      = TEME
TIME_SYSTEM    = UTC
MEAN_ELEMENT_THEORY = SGP/SGP4

EPOCH          = 2025-11-28T09:35:20.032224
MEAN_MOTION    = 13.23021462
ECCENTRICITY   = .01599039
INCLINATION    = 100.3448
RA_OF_ASC_NODE = 30.8207
ARG_OF_PERICENTER = 179.6602
MEAN_ANOMALY   = 180.4651

EPHEMERIS_TYPE = 0
CLASSIFICATION_TYPE = U
NORAD_CAT_ID   = 270073
ELEMENT_SET_NO = 999
REV_AT_EPOCH   = 28976
BSTAR          = .15246232E-2
MEAN_MOTION_DOT = .642E-5
MEAN_MOTION_DDOT = 0

CCSDS_OMM_VERS = 2.0
CREATION_DATE  = 
ORIGINATOR     = 

OBJECT_NAME    = UNKNOWN
OBJECT_ID      = 
CENTER_NAME    = EARTH
REF_FRAME      = TEME
TIME_SYSTEM    = UTC
MEAN_ELEMENT_THEORY = SGP/SGP4

EPOCH          = 2025-11-03T01:58:29.745408
MEAN_MOTION    = 12.85982539
ECCENTRICITY   = .04641447
INCLINATION    = 63.2994
RA_OF_ASC_NODE = 243.3000
ARG_OF_PERICENTER = 14.5339
MEAN_ANOMALY   = 346.8495

EPHEMERIS_TYPE = 0
CLASSIFICATION_TYPE = U
NORAD_CAT_ID   = 270074
ELEMENT_SET_NO = 999
REV_AT_EPOCH   = 27858
BSTAR          = .16193556E-2
MEAN_MOTION_DOT = .562E-5
MEAN_MOTION_DDOT = 0

CCSDS_OMM_VERS = 2.0
CREATION_DATE  = 
ORIGINATOR     = 

OBJECT_NAME    = UNKNOWN
OBJECT_ID      = 
CENTER_NAME    = EARTH
REF_FRAME      = TEME
TIME_SYSTEM    = UTC
MEAN_ELEMENT_THEORY = SGP/SGP4

EPOCH          = 2025-11-28T04:36:50.285952
MEAN_MOTION    = 14.30577409
ECCENTRICITY   = .00969717
INCLINATION    = 99.2748
RA_OF_ASC_NODE = 297.0224
ARG_OF_PERICENTER = 171.1188
MEAN_ANOMALY   = 189.1737

EPHEMERIS_TYPE = 0
CLASSIFICATION_TYPE = U
NORAD_CAT_ID   = 270075
ELEMENT_SET_NO = 999
REV_AT_EPOCH   = 30613
BSTAR          = .62564927E-2
MEAN_MOTION_DOT = .17177E-3
MEAN_MOTION_DDOT = 0

CCSDS_OMM_VERS = 2.0
CREATION_DATE  = 
ORIGINATOR     = 

OBJECT_NAME    = UNKNOWN
OBJECT_ID      = 
CENTER_NAME    = EARTH
REF_FRAME      = TEME
TIME_SYSTEM    = UTC
MEAN_ELEMENT_THEORY = SGP/SGP4

EPOCH          = 2025-11-27T17:48:43.862112
MEAN_MOTION    = 13.66637979
ECCENTRICITY   = .02700877
INCLINATION    = 98.3435
RA_OF_ASC_NODE = 136.4238
ARG_OF_PERICENTER = 313.2616
MEAN_ANOMALY   = 44.6275

EPHEMERIS_TYPE = 0
CLASSIFICATION_TYPE = U
NORAD_CAT_ID   = 270077
ELEMENT_SET_NO = 999
REV_AT_EPOCH   = 29890
BSTAR          = .11736733E-2
MEAN_MOTION_DOT = .1217E-4
MEAN_MOTION_DDOT = 0

CCSDS_OMM_VERS = 2.0
CREATION_DATE  = 
ORIGINATOR     = 

OBJECT_NAME    = UNKNOWN
OBJECT_ID      = 
CENTER_NAME    = EARTH
REF_FRAME      = TEME
TIME_SYSTEM    = UTC
MEAN_ELEMENT_THEORY = SGP/SGP4

EPOCH          = 2025-11-28T01:27:42.925536
MEAN_MOTION    = 14.35813910
ECCENTRICITY   = .00156295
INCLINATION    = 86.3935
RA_OF_ASC_NODE = 84.8696
ARG_OF_PERICENTER = 275.9964
MEAN_ANOMALY   = 83.9451

EPHEMERIS_TYPE = 0
CLASSIFICATION_TYPE = U
NORAD_CAT_ID   = 270078
ELEMENT_SET_NO = 999
REV_AT_EPOCH   = 31433
BSTAR          = .30241082E-3
MEAN_MOTION_DOT = .895E-5
MEAN_MOTION_DDOT = 0

CCSDS_OMM_VERS = 2.0
CREATION_DATE  = 
ORIGINATOR     = 

OBJECT_NAME    = UNKNOWN
OBJECT_ID      = 
CENTER_NAME    = EARTH
REF_FRAME      = TEME
TIME_SYSTEM    = UTC
MEAN_ELEMENT_THEORY = SGP/SGP4

EPOCH          = 2025-11-26T01:49:41.464704
MEAN_MOTION    = 12.38295459
ECCENTRICITY   = .0161678
INCLINATION    = 56.0457
RA_OF_ASC_NODE = 105.2287
ARG_OF_PERICENTER = 17.8171
MEAN_ANOMALY   = 342.8310

EPHEMERIS_TYPE = 0
CLASSIFICATION_TYPE = U
NORAD_CAT_ID   = 270079
ELEMENT_SET_NO = 999
REV_AT_EPOCH   = 27128
BSTAR          = .31325899E-3
MEAN_MOTION_DOT = -.5E-6
MEAN_MOTION_DDOT = 0

CCSDS_OMM_VERS = 2.0
CREATION_DATE  = 
ORIGINATOR     = 

OBJECT_NAME    = UNKNOWN
OBJECT_ID      = 
CENTER_NAME    = EARTH
REF_FRAME      = TEME
TIME_SYSTEM    = UTC
MEAN_ELEMENT_THEORY = SGP/SGP4

EPOCH          = 2025-11-27T18:25:36.757920
MEAN_MOTION    = 12.96554162
ECCENTRICITY   = .00193586
INCLINATION    = 90.2453
RA_OF_ASC_NODE = 345.6204
ARG_OF_PERICENTER = 262.7000
MEAN_ANOMALY   = 97.1920

EPHEMERIS_TYPE = 0
CLASSIFICATION_TYPE = U
NORAD_CAT_ID   = 270081
ELEMENT_SET_NO = 999
REV_AT_EPOCH   = 28389
BSTAR          = .54006285E-3
MEAN_MOTION_DOT = .162E-5
MEAN_MOTION_DDOT = 0

CCSDS_OMM_VERS = 2.0
CREATION_DATE  = 
ORIGINATOR     = 

OBJECT_NAME    = UNKNOWN
OBJECT_ID      = 
CENTER_NAME    = EARTH
REF_FRAME      = TEME
TIME_SYSTEM    = UTC
MEAN_ELEMENT_THEORY = SGP/SGP4

EPOCH          = 2025-11-13T12:31:48.499104
MEAN_MOTION    = 13.98320167
ECCENTRICITY   = .02215739
INCLINATION    = 74.0147
RA_OF_ASC_NODE = 48.6085
ARG_OF_PERICENTER = 217.8447
MEAN_ANOMALY   = 140.6934

EPHEMERIS_TYPE = 0
CLASSIFICATION_TYPE = U
NORAD_CAT_ID   = 270082
ELEMENT_SET_NO = 999
REV_AT_EPOCH   = 30321
BSTAR          = .54402923E-2
MEAN_MOTION_DOT = .9564E-4
MEAN_MOTION_DDOT = 0

CCSDS_OMM_VERS = 2.0
CREATION_DATE  = 
ORIGINATOR     = 

OBJECT_NAME    = UNKNOWN
OBJECT_ID      = 
CENTER_NAME    = EARTH
REF_FRAME      = TEME
TIME_SYSTEM    = UTC
MEAN_ELEMENT_THEORY = SGP/SGP4

EPOCH          = 2025-11-26T12:08:39.820416
MEAN_MOTION    = 15.28279695
ECCENTRICITY   = .00137041
INCLINATION    = 74.0163
RA_OF_ASC_NODE = 252.3009
ARG_OF_PERICENTER = 111.7353
MEAN_ANOMALY   = 248.5308

EPHEMERIS_TYPE = 0
CLASSIFICATION_TYPE = U
NORAD_CAT_ID   = 270083
ELEMENT_SET_NO = 999
REV_AT_EPOCH   = 31923
BSTAR          = .3961981E-2
MEAN_MOTION_DOT = .111085E-2
MEAN_MOTION_DDOT = 0

CCSDS_OMM_VERS = 2.0
CREATION_DATE  = 
ORIGINATOR     = 

OBJECT_NAME    = UNKNOWN
OBJECT_ID      = 
CENTER_NAME    = EARTH
REF_FRAME      = TEME
TIME_SYSTEM    = UTC
MEAN_ELEMENT_THEORY = SGP/SGP4

EPOCH          = 2025-11-26T07:53:09.985920
MEAN_MOTION    = 13.78038204
ECCENTRICITY   = .03965363
INCLINATION    = 72.8773
RA_OF_ASC_NODE = 194.4123
ARG_OF_PERICENTER = 271.7741
MEAN_ANOMALY   = 83.8009

EPHEMERIS_TYPE = 0
CLASSIFICATION_TYPE = U
NORAD_CAT_ID   = 270084
ELEMENT_SET_NO = 999
REV_AT_EPOCH   = 29770
BSTAR          = .37711677E-2
MEAN_MOTION_DOT = .6779E-4
MEAN_MOTION_DDOT = 0

CCSDS_OMM_VERS = 2.0
CREATION_DATE  = 
ORIGINATOR     = 

OBJECT_NAME    = UNKNOWN
OBJECT_ID      = 
CENTER_NAME    = EARTH
REF_FRAME      = TEME
TIME_SYSTEM    = UTC
MEAN_ELEMENT_THEORY = SGP/SGP4

EPOCH          = 2025-11-18T11:36:21.851136
MEAN_MOTION    = 12.80528335
ECCENTRICITY   = .06623594
INCLINATION    = 99.2728
RA_OF_ASC_NODE = 232.4932
ARG_OF_PERICENTER = 27.9941
MEAN_ANOMALY   = 335.5188

EPHEMERIS_TYPE = 0
CLASSIFICATION_TYPE = U
NORAD_CAT_ID   = 270085
ELEMENT_SET_NO = 999
REV_AT_EPOCH   = 27834
BSTAR          = .81903479E-2
MEAN_MOTION_DOT = .4742E-4
MEAN_MOTION_DDOT = 0

CCSDS_OMM_VERS = 2.0
CREATION_DATE  = 
ORIGINATOR     = 

OBJECT_NAME    = UNKNOWN
OBJECT_ID      = 
CENTER_NAME    = EARTH
REF_FRAME      = TEME
TIME_SYSTEM    = UTC
MEAN_ELEMENT_THEORY = SGP/SGP4

EPOCH          = 2025-11-25T11:38:34.366272
MEAN_MOTION    = 14.91552334
ECCENTRICITY   = .00249235
INCLINATION    = 86.3487
RA_OF_ASC_NODE = 46.6116
ARG_OF_PERICENTER = 150.4825
MEAN_ANOMALY   = 209.7816

EPHEMERIS_TYPE = 0
CLASSIFICATION_TYPE = U
NORAD_CAT_ID   = 270086
ELEMENT_SET_NO = 999
REV_AT_EPOCH   = 7900
BSTAR          = .49227553E-2
MEAN_MOTION_DOT = .49932E-3
MEAN_MOTION_DDOT = 0

CCSDS_OMM_VERS = 2.0
CREATION_DATE  = 
ORIGINATOR     = 

OBJECT_NAME    = UNKNOWN
OBJECT_ID      = 
CENTER_NAME    = EARTH
REF_FRAME      = TEME
TIME_SYSTEM    = UTC
MEAN_ELEMENT_THEORY = SGP/SGP4

EPOCH          = 2025-11-11T01:02:07.848960
MEAN_MOTION    = 12.81474329
ECCENTRICITY   = .07213362
INCLINATION    = 72.8111
RA_OF_ASC_NODE = 238.9424
ARG_OF_PERICENTER = 93.3170
MEAN_ANOMALY   = 275.0609

EPHEMERIS_TYPE = 0
CLASSIFICATION_TYPE = U
NORAD_CAT_ID   = 270087
ELEMENT_SET_NO = 999
REV_AT_EPOCH   = 27745
BSTAR          = .61316752E-2
MEAN_MOTION_DOT = .4333E-4
MEAN_MOTION_DDOT = 0

CCSDS_OMM_VERS = 2.0
CREATION_DATE  = 
ORIGINATOR     = 

OBJECT_NAME    = UNKNOWN
OBJECT_ID      = 
CENTER_NAME    = EARTH
REF_FRAME      = TEME
TIME_SYSTEM    = UTC
MEAN_ELEMENT_THEORY = SGP/SGP4

EPOCH          = 2025-11-25T08:39:48.897504
MEAN_MOTION    = 12.25964172
ECCENTRICITY   = .0135573
INCLINATION    = 74.0245
RA_OF_ASC_NODE = 204.9374
ARG_OF_PERICENTER = 183.3055
MEAN_ANOMALY   = 176.7101

EPHEMERIS_TYPE = 0
CLASSIFICATION_TYPE = U
NORAD_CAT_ID   = 270088
ELEMENT_SET_NO = 999
REV_AT_EPOCH   = 26846
BSTAR          = .21366169E-3
MEAN_MOTION_DOT = .1E-6
MEAN_MOTION_DDOT = 0

CCSDS_OMM_VERS = 2.0
CREATION_DATE  = 
ORIGINATOR     = 

OBJECT_NAME    = UNKNOWN
OBJECT_ID      = 
CENTER_NAME    = EARTH
REF_FRAME      = TEME
TIME_SYSTEM    = UTC
MEAN_ELEMENT_THEORY = SGP/SGP4

EPOCH          = 2025-11-28T03:27:18.243360
MEAN_MOTION    = 14.23795390
ECCENTRICITY   = .00370851
INCLINATION    = 98.8531
RA_OF_ASC_NODE = 280.7122
ARG_OF_PERICENTER = 113.4465
MEAN_ANOMALY   = 247.0619

EPHEMERIS_TYPE = 0
CLASSIFICATION_TYPE = U
NORAD_CAT_ID   = 270089
ELEMENT_SET_NO = 999
REV_AT_EPOCH   = 31195
BSTAR          = .18897555E-3
MEAN_MOTION_DOT = .39E-5
MEAN_MOTION_DDOT = 0

